ORBCOMM FM05            
1 25117U 97084F   25193.64184523  .00000639  00000+0  21807-3 0  9995
2 25117  45.0141 245.8326 0003464 295.1090  64.9402 14.45999215444293
ORBCOMM FM06            
1 25118U 97084G   25193.59246329  .00000672  00000+0  22655-3 0  9992
2 25118  45.0134 245.7803 0002855 279.3503 237.4314 14.46131675445201
ORBCOMM FM07            
1 25119U 97084H   25193.57581473  .00000635  00000+0  21632-3 0  9996
2 25119  45.0128 246.6283 0004233 299.6027  60.4403 14.46129643445198
ORBCOMM FM03            
1 25158U 98007B   25193.92585569  .00000564  00000+0  24364-3 0  9990
2 25158 107.9660 188.4755 0045466 205.9976 153.8878 14.34548924427730
ORBCOMM FM04            
1 25159U 98007C   25193.76619173  .00000511  00000+0  22475-3 0  9995
2 25159 107.9650 191.3868 0041202 203.9252 155.9973 14.34794797427894
ORBCOMM FM17            
1 25413U 98046A   25193.87700340  .00000492  00000+0  21994-3 0  9993
2 25413  44.9935 136.3587 0004596 332.4470  27.6133 14.35128284406865
ORBCOMM FM18            
1 25414U 98046B   25193.83651794  .00000659  00000+0  25924-3 0  9990
2 25414  44.9938  53.2613 0005284  52.8914 307.2417 14.38604446407941
